[{"OBJECT_NAME":"ONEWEB-0189","OBJECT_ID":"2021-031H","EPOCH":"2026-02-08T05:16:14.112192","MEAN_MOTION":13.14503601,"ECCENTRICITY":0.00017267,"INCLINATION":87.9028,"RA_OF_ASC_NODE":315.4097,"ARG_OF_PERICENTER":90.4224,"MEAN_ANOMALY":269.7104,"EPHEMERIS_TYPE":0,"CLASSIFICATION_TYPE":"U","NORAD_CAT_ID":48217,"ELEMENT_SET_NO":999,"REV_AT_EPOCH":23128,"BSTAR":0.0005149017,"MEAN_MOTION_DOT":2.04e-6,"MEAN_MOTION_DDOT":0},{"OBJECT_NAME":"ONEWEB-0196","OBJECT_ID":"2021-031J","EPOCH":"2026-02-08T06:33:51.490368","MEAN_MOTION":13.14505475,"ECCENTRICITY":0.00017396,"INCLINATION":87.902,"RA_OF_ASC_NODE":315.4101,"ARG_OF_PERICENTER":82.6042,"MEAN_ANOMALY":277.5285,"EPHEMERIS_TYPE":0,"CLASSIFICATION_TYPE":"U","NORAD_CAT_ID":48218,"ELEMENT_SET_NO":999,"REV_AT_EPOCH":23129,"BSTAR":0.00036928959,"MEAN_MOTION_DOT":1.5e-6,"MEAN_MOTION_DDOT":0},{"OBJECT_NAME":"ONEWEB-0183","OBJECT_ID":"2021-031K","EPOCH":"2026-02-08T05:57:19.620000","MEAN_MOTION":13.14504162,"ECCENTRICITY":0.00018663,"INCLINATION":87.9018,"RA_OF_ASC_NODE":315.4159,"ARG_OF_PERICENTER":74.3758,"MEAN_ANOMALY":285.7578,"EPHEMERIS_TYPE":0,"CLASSIFICATION_TYPE":"U","NORAD_CAT_ID":48219,"ELEMENT_SET_NO":999,"REV_AT_EPOCH":23138,"BSTAR":-0.00031461413,"MEAN_MOTION_DOT":-1.04e-6,"MEAN_MOTION_DDOT":0},{"OBJECT_NAME":"ONEWEB-0185","OBJECT_ID":"2021-031L","EPOCH":"2026-02-08T06:35:00.887712","MEAN_MOTION":13.14504377,"ECCENTRICITY":0.00021256,"INCLINATION":87.9027,"RA_OF_ASC_NODE":315.3955,"ARG_OF_PERICENTER":78.8564,"MEAN_ANOMALY":281.2805,"EPHEMERIS_TYPE":0,"CLASSIFICATION_TYPE":"U","NORAD_CAT_ID":48220,"ELEMENT_SET_NO":999,"REV_AT_EPOCH":23131,"BSTAR":0.00033846113,"MEAN_MOTION_DOT":1.38e-6,"MEAN_MOTION_DDOT":0},{"OBJECT_NAME":"ONEWEB-0187","OBJECT_ID":"2021-031M","EPOCH":"2026-02-08T06:06:16.166592","MEAN_MOTION":13.14504412,"ECCENTRICITY":0.00019052,"INCLINATION":87.9017,"RA_OF_ASC_NODE":315.4341,"ARG_OF_PERICENTER":83.0488,"MEAN_ANOMALY":277.0858,"EPHEMERIS_TYPE":0,"CLASSIFICATION_TYPE":"U","NORAD_CAT_ID":48221,"ELEMENT_SET_NO":999,"REV_AT_EPOCH":23132,"BSTAR":-0.00045914867,"MEAN_MOTION_DOT":-1.57e-6,"MEAN_MOTION_DDOT":0},{"OBJECT_NAME":"ONEWEB-0192","OBJECT_ID":"2021-031N","EPOCH":"2026-02-08T05:23:04.753248","MEAN_MOTION":13.14503372,"ECCENTRICITY":0.00016258,"INCLINATION":87.9021,"RA_OF_ASC_NODE":315.4294,"ARG_OF_PERICENTER":77.7316,"MEAN_ANOMALY":282.3995,"EPHEMERIS_TYPE":0,"CLASSIFICATION_TYPE":"U","NORAD_CAT_ID":48222,"ELEMENT_SET_NO":999,"REV_AT_EPOCH":23123,"BSTAR":0.00046872717,"MEAN_MOTION_DOT":1.87e-6,"MEAN_MOTION_DDOT":0},{"OBJECT_NAME":"ONEWEB-0219","OBJECT_ID":"2021-031P","EPOCH":"2026-02-08T06:43:00.383520","MEAN_MOTION":13.14504067,"ECCENTRICITY":0.00019658,"INCLINATION":87.9026,"RA_OF_ASC_NODE":315.4008,"ARG_OF_PERICENTER":81.9536,"MEAN_ANOMALY":278.1816,"EPHEMERIS_TYPE":0,"CLASSIFICATION_TYPE":"U","NORAD_CAT_ID":48223,"ELEMENT_SET_NO":999,"REV_AT_EPOCH":23144,"BSTAR":0.0004713963,"MEAN_MOTION_DOT":1.88e-6,"MEAN_MOTION_DDOT":0},{"OBJECT_NAME":"ONEWEB-0202","OBJECT_ID":"2021-031Q","EPOCH":"2026-02-08T06:15:35.913312","MEAN_MOTION":13.14503524,"ECCENTRICITY":0.00016502,"INCLINATION":87.9018,"RA_OF_ASC_NODE":315.4141,"ARG_OF_PERICENTER":101.8961,"MEAN_ANOMALY":258.2354,"EPHEMERIS_TYPE":0,"CLASSIFICATION_TYPE":"U","NORAD_CAT_ID":48224,"ELEMENT_SET_NO":999,"REV_AT_EPOCH":23142,"BSTAR":-0.00027917236,"MEAN_MOTION_DOT":-9.1e-7,"MEAN_MOTION_DDOT":0},{"OBJECT_NAME":"ONEWEB-0204","OBJECT_ID":"2021-031R","EPOCH":"2026-02-08T05:15:04.331232","MEAN_MOTION":13.14504471,"ECCENTRICITY":0.00019658,"INCLINATION":87.9028,"RA_OF_ASC_NODE":315.4153,"ARG_OF_PERICENTER":71.7297,"MEAN_ANOMALY":288.4046,"EPHEMERIS_TYPE":0,"CLASSIFICATION_TYPE":"U","NORAD_CAT_ID":48225,"ELEMENT_SET_NO":999,"REV_AT_EPOCH":23131,"BSTAR":0.00069013586,"MEAN_MOTION_DOT":2.69e-6,"MEAN_MOTION_DDOT":0},{"OBJECT_NAME":"ONEWEB-0205","OBJECT_ID":"2021-031S","EPOCH":"2026-02-08T06:29:18.338496","MEAN_MOTION":13.14504503,"ECCENTRICITY":0.00018805,"INCLINATION":87.9025,"RA_OF_ASC_NODE":315.3978,"ARG_OF_PERICENTER":80.4057,"MEAN_ANOMALY":279.7286,"EPHEMERIS_TYPE":0,"CLASSIFICATION_TYPE":"U","NORAD_CAT_ID":48226,"ELEMENT_SET_NO":999,"REV_AT_EPOCH":23133,"BSTAR":6.1884688e-5,"MEAN_MOTION_DOT":3.6e-7,"MEAN_MOTION_DDOT":0},{"OBJECT_NAME":"ONEWEB-0206","OBJECT_ID":"2021-031T","EPOCH":"2026-02-08T05:50:28.364640","MEAN_MOTION":13.14504644,"ECCENTRICITY":0.00014669,"INCLINATION":87.9041,"RA_OF_ASC_NODE":315.4,"ARG_OF_PERICENTER":74.2926,"MEAN_ANOMALY":285.8365,"EPHEMERIS_TYPE":0,"CLASSIFICATION_TYPE":"U","NORAD_CAT_ID":48227,"ELEMENT_SET_NO":999,"REV_AT_EPOCH":23128,"BSTAR":-0.00031923583,"MEAN_MOTION_DOT":-1.06e-6,"MEAN_MOTION_DDOT":0},{"OBJECT_NAME":"ONEWEB-0182","OBJECT_ID":"2021-031U","EPOCH":"2026-02-08T05:43:37.789248","MEAN_MOTION":13.1450346,"ECCENTRICITY":0.00018995,"INCLINATION":87.9023,"RA_OF_ASC_NODE":315.4176,"ARG_OF_PERICENTER":74.1858,"MEAN_ANOMALY":285.9481,"EPHEMERIS_TYPE":0,"CLASSIFICATION_TYPE":"U","NORAD_CAT_ID":48228,"ELEMENT_SET_NO":999,"REV_AT_EPOCH":23149,"BSTAR":-0.0003435562,"MEAN_MOTION_DOT":-1.15e-6,"MEAN_MOTION_DDOT":0},{"OBJECT_NAME":"ONEWEB-0186","OBJECT_ID":"2021-031V","EPOCH":"2026-02-08T05:59:36.222720","MEAN_MOTION":13.14505462,"ECCENTRICITY":0.00017944,"INCLINATION":87.9031,"RA_OF_ASC_NODE":315.4008,"ARG_OF_PERICENTER":82.2005,"MEAN_ANOMALY":277.9328,"EPHEMERIS_TYPE":0,"CLASSIFICATION_TYPE":"U","NORAD_CAT_ID":48229,"ELEMENT_SET_NO":999,"REV_AT_EPOCH":23144,"BSTAR":-0.00064016122,"MEAN_MOTION_DOT":-2.25e-6,"MEAN_MOTION_DDOT":0},{"OBJECT_NAME":"ONEWEB-0181","OBJECT_ID":"2021-031W","EPOCH":"2026-02-08T05:27:39.055104","MEAN_MOTION":13.14504204,"ECCENTRICITY":0.00017391,"INCLINATION":87.9018,"RA_OF_ASC_NODE":315.451,"ARG_OF_PERICENTER":82.8483,"MEAN_ANOMALY":277.2844,"EPHEMERIS_TYPE":0,"CLASSIFICATION_TYPE":"U","NORAD_CAT_ID":48230,"ELEMENT_SET_NO":999,"REV_AT_EPOCH":23129,"BSTAR":0.00042126008,"MEAN_MOTION_DOT":1.69e-6,"MEAN_MOTION_DDOT":0},{"OBJECT_NAME":"ONEWEB-0188","OBJECT_ID":"2021-031X","EPOCH":"2026-02-08T06:22:26.679648","MEAN_MOTION":13.1450346,"ECCENTRICITY":0.00017597,"INCLINATION":87.9019,"RA_OF_ASC_NODE":315.4414,"ARG_OF_PERICENTER":77.8511,"MEAN_ANOMALY":282.2815,"EPHEMERIS_TYPE":0,"CLASSIFICATION_TYPE":"U","NORAD_CAT_ID":48231,"ELEMENT_SET_NO":999,"REV_AT_EPOCH":23120,"BSTAR":-8.2327784e-5,"MEAN_MOTION_DOT":-1.8e-7,"MEAN_MOTION_DDOT":0},{"OBJECT_NAME":"ONEWEB-0220","OBJECT_ID":"2021-031Y","EPOCH":"2026-02-08T05:29:55.396896","MEAN_MOTION":13.14503169,"ECCENTRICITY":0.00019285,"INCLINATION":87.9033,"RA_OF_ASC_NODE":315.4036,"ARG_OF_PERICENTER":80.2268,"MEAN_ANOMALY":279.908,"EPHEMERIS_TYPE":0,"CLASSIFICATION_TYPE":"U","NORAD_CAT_ID":48232,"ELEMENT_SET_NO":999,"REV_AT_EPOCH":23146,"BSTAR":0.00011666023,"MEAN_MOTION_DOT":5.6e-7,"MEAN_MOTION_DDOT":0}]
