ONEWEB-0189             
1 48217U 21031H   26039.21960778  .00000204  00000+0  51490-3 0  9996
2 48217  87.9028 315.4097 0001726  90.4224 269.7104 13.14503601231283
ONEWEB-0196             
1 48218U 21031J   26039.27351262  .00000150  00000+0  36929-3 0  9995
2 48218  87.9020 315.4101 0001739  82.6042 277.5285 13.14505475231296
ONEWEB-0183             
1 48219U 21031K   26039.24814375 -.00000104  00000+0 -31461-3 0  9999
2 48219  87.9018 315.4159 0001866  74.3758 285.7578 13.14504162231388
ONEWEB-0185             
1 48220U 21031L   26039.27431583  .00000138  00000+0  33846-3 0  9994
2 48220  87.9027 315.3955 0002125  78.8564 281.2805 13.14504377231311
ONEWEB-0187             
1 48221U 21031M   26039.25435378 -.00000157  00000+0 -45915-3 0  9992
2 48221  87.9017 315.4341 0001905  83.0488 277.0858 13.14504412231321
ONEWEB-0192             
1 48222U 21031N   26039.22436057  .00000187  00000+0  46873-3 0  9990
2 48222  87.9021 315.4294 0001625  77.7316 282.3995 13.14503372231238
ONEWEB-0219             
1 48223U 21031P   26039.27986555  .00000188  00000+0  47140-3 0  9998
2 48223  87.9026 315.4008 0001965  81.9536 278.1816 13.14504067231445
ONEWEB-0202             
1 48224U 21031Q   26039.26083233 -.00000091  00000+0 -27917-3 0  9994
2 48224  87.9018 315.4141 0001650 101.8961 258.2354 13.14503524231421
ONEWEB-0204             
1 48225U 21031R   26039.21880013  .00000269  00000+0  69014-3 0  9990
2 48225  87.9028 315.4153 0001965  71.7297 288.4046 13.14504471231315
ONEWEB-0205             
1 48226U 21031S   26039.27035114  .00000036  00000+0  61885-4 0  9992
2 48226  87.9025 315.3978 0001880  80.4057 279.7286 13.14504503231331
ONEWEB-0206             
1 48227U 21031T   26039.24338385 -.00000106  00000+0 -31924-3 0  9996
2 48227  87.9041 315.4000 0001466  74.2926 285.8365 13.14504644231289
ONEWEB-0182             
1 48228U 21031U   26039.23863182 -.00000115  00000+0 -34356-3 0  9996
2 48228  87.9023 315.4176 0001899  74.1858 285.9481 13.14503460231495
ONEWEB-0186             
1 48229U 21031V   26039.24972480 -.00000225  00000+0 -64016-3 0  9998
2 48229  87.9031 315.4008 0001794  82.2005 277.9328 13.14505462231447
ONEWEB-0181             
1 48230U 21031W   26039.22753536  .00000169  00000+0  42126-3 0  9990
2 48230  87.9018 315.4510 0001739  82.8483 277.2844 13.14504204231299
ONEWEB-0188             
1 48231U 21031X   26039.26558657 -.00000018  00000+0 -82328-4 0  9996
2 48231  87.9019 315.4414 0001759  77.8511 282.2815 13.14503460231200
ONEWEB-0220             
1 48232U 21031Y   26039.22911339  .00000056  00000+0  11666-3 0  9999
2 48232  87.9033 315.4036 0001928  80.2268 279.9080 13.14503169231463
